NORAD_CAT_ID,OBJECT_NAME,OBJECT_TYPE,EPOCH,MEAN_MOTION,ECCENTRICITY,INCLINATION,RA_OF_ASC_NODE,ARG_OF_PERICENTER,MEAN_ANOMALY,BSTAR,MEAN_MOTION_DOT,MEAN_MOTION_DDOT,TLE_LINE0,TLE_LINE1,TLE_LINE2,SEMIMAJOR_AXIS,PERIOD,APOGEE,PERIGEE,DECAYED
51108.0,STARLINK-3362,PAYLOAD,2022-06-24 11:57:12,15.08826367,0.0001598,53.2183,248.3318,52.8029,307.3109,-6.2953e-05,-1.289e-05,0.0,0 STARLINK-3362,1 51108U 22005E   22175.49806133 -.00001289  00000-0 -62953-4 0  9996,2 51108  53.2183 248.3318 0001598  52.8029 307.3109 15.08826367 25542,6917.922,95.438,540.893,538.682,0.0
51108.0,STARLINK-3362,PAYLOAD,2022-06-24 13:32:35,15.08827923,0.0001639,53.2184,248.0346,54.7814,305.3332,-4.794600000000001e-05,-1.051e-05,0.0,0 STARLINK-3362,1 51108U 22005E   22175.56430047 -.00001051  00000-0 -47946-4 0  9993,2 51108  53.2184 248.0346 0001639  54.7814 305.3332 15.08827923 25556,6917.917,95.438,540.9159999999998,538.648,0.0
51108.0,STARLINK-3362,PAYLOAD,2022-06-24 21:29:31,15.08829513,0.000164,53.2184,246.5475,53.2386,306.8756,-3.4417e-05,-8.36e-06,0.0,0 STARLINK-3362,1 51108U 22005E   22175.89550103 -.00000836  00000-0 -34417-4 0  9994,2 51108  53.2184 246.5475 0001640  53.2386 306.8756 15.08829513 24509,6917.9119999999975,95.438,540.9119999999998,538.643,0.0
51108.0,STARLINK-3362,PAYLOAD,2022-06-25 11:47:59,15.08833198,0.0001648,53.218,243.8713,53.9362,306.1783,5.4454e-06,-2.01e-06,0.0,0 STARLINK-3362,1 51108U 22005E   22176.49166097 -.00000201  00000-0  54454-5 0  9995,2 51108  53.2180 243.8713 0001648  53.9362 306.1783 15.08833198 25697,6917.901,95.438,540.906,538.626,0.0
51108.0,STARLINK-3362,PAYLOAD,2022-06-25 13:23:22,15.08834334,0.0001678,53.218,243.5739,54.2527,305.8621,1.6399e-05,-2.7e-07,0.0,0 STARLINK-3362,1 51108U 22005E   22176.55790022 -.00000027  00000-0  16399-4 0  9994,2 51108  53.2180 243.5739 0001678  54.2527 305.8621 15.08834334 25704,6917.898,95.438,540.924,538.602,0.0
51108.0,STARLINK-3362,PAYLOAD,2022-06-26 03:41:50,15.08840062,0.0001682,53.218,240.8975,54.4861,305.6288,4.575800000000001e-05,4.4e-06,0.0,0 STARLINK-3362,1 51108U 22005E   22177.15405697  .00000440  00000-0  45758-4 0  9991,2 51108  53.2180 240.8975 0001682  54.4861 305.6288 15.08840062 25795,6917.88,95.438,540.909,538.582,0.0
51108.0,STARLINK-3362,PAYLOAD,2022-06-26 11:38:45,15.08838813,0.0001748,53.218,239.4111,55.7829,304.3329,0.00014163,1.967e-05,0.0,0 STARLINK-3362,1 51108U 22005E   22177.48525440  .00001967  00000-0  14163-3 0  9996,2 51108  53.2180 239.4111 0001748  55.7829 304.3329 15.08838813 25841,6917.884,95.438,540.9580000000002,538.54,0.0
51108.0,STARLINK-3362,PAYLOAD,2022-06-26 16:24:55,15.08841595,0.0001764999999999,53.218,238.519,55.8083,304.3077,0.00015513,2.182e-05,0.0,0 STARLINK-3362,1 51108U 22005E   22177.68397213  .00002182  00000-0  15513-3 0  9993,2 51108  53.2180 238.5190 0001765  55.8083 304.3077 15.08841595 25874,6917.876,95.437,540.962,538.52,0.0
51108.0,STARLINK-3362,PAYLOAD,2022-06-26 21:11:04,15.08845125,0.0001771999999999,53.218,237.6269,55.5182,304.5977,0.00015298,2.148e-05,0.0,0 STARLINK-3362,1 51108U 22005E   22177.88268951  .00002148  00000-0  15298-3 0  9993,2 51108  53.2180 237.6269 0001772  55.5182 304.5977 15.08845125 24802,6917.865,95.437,540.956,538.504,0.0
51108.0,STARLINK-3362,PAYLOAD,2022-06-27 11:29:33,15.08839608,0.000173,53.2179,234.9505,56.9296,303.1862,2.3437e-05,8.5e-07,0.0,0 STARLINK-3362,1 51108U 22005E   22178.47885713  .00000085  00000-0  23437-4 0  9993,2 51108  53.2179 234.9505 0001730  56.9296 303.1862 15.08839608 25996,6917.882,95.438,540.943,538.55,0.0
51108.0,STARLINK-3362,PAYLOAD,2022-06-27 13:04:56,15.08839185,0.0001728,53.2181,234.6532,56.8377,303.2781,1.8577e-05,8e-08,0.0,0 STARLINK-3362,1 51108U 22005E   22178.54509752  .00000008  00000-0  18577-4 0  9991,2 51108  53.2181 234.6532 0001728  56.8377 303.2781 15.08839185 26006,6917.8830000000025,95.438,540.943,538.552,0.0
51108.0,STARLINK-3362,PAYLOAD,2022-06-27 21:01:51,15.0884211,0.0001733,53.2181,233.1665,56.4267,303.689,1.8173e-05,1e-08,0.0,0 STARLINK-3362,1 51108U 22005E   22178.87629502  .00000001  00000-0  18173-4 0  9998,2 51108  53.2181 233.1665 0001733  56.4267 303.6890 15.08842110 24956,6917.874,95.437,540.938,538.54,0.0
51108.0,STARLINK-3362,PAYLOAD,2022-06-28 09:44:57,15.08833386,0.0001839,53.2182,230.7879,58.86600000000001,301.2512,-0.0001005,-1.887e-05,0.0,0 STARLINK-3362,1 51108U 22005E   22179.40622518 -.00001887  00000-0 -10050-3 0  9998,2 51108  53.2182 230.7879 0001839  58.8660 301.2512 15.08833386 26139,6917.901,95.438,541.038,538.493,0.0
51108.0,STARLINK-3362,PAYLOAD,2022-06-28 12:55:44,15.08833385,0.0001691,53.2187,230.1925,61.0491,299.067,-0.00013372,-2.415e-05,0.0,0 STARLINK-3362,1 51108U 22005E   22179.53870647 -.00002415  00000-0 -13372-3 0  9998,2 51108  53.2187 230.1925 0001691  61.0491 299.0670 15.08833385 25052,6917.901,95.438,540.935,538.596,0.0
51108.0,STARLINK-3362,PAYLOAD,2022-06-29 12:46:31,15.08829263,0.0001665,53.2184,225.7327,57.6155,302.4998,-6.358099999999999e-06,-3.89e-06,0.0,0 STARLINK-3362,1 51108U 22005E   22180.53230777 -.00000389  00000-0 -63581-5 0  9991,2 51108  53.2184 225.7327 0001665  57.6155 302.4998 15.08829263 25203,6917.913000000001,95.438,540.93,538.626,0.0
51108.0,STARLINK-3362,PAYLOAD,2022-06-30 12:37:18,15.08829321,0.0001692,53.2176,221.2725,50.8989,309.2154,5.1721e-05,5.35e-06,0.0,0 STARLINK-3362,1 51108U 22005E   22181.52591070  .00000535  00000-0  51721-4 0  9990,2 51108  53.2176 221.2725 0001692  50.8989 309.2154 15.08829321 25357,6917.913000000001,95.438,540.9490000000002,538.6080000000002,0.0
51108.0,STARLINK-3362,PAYLOAD,2022-07-01 02:55:46,15.08833798,0.0001706,53.2176,218.5965,50.0214,310.0928,3.6254e-05,2.89e-06,0.0,0 STARLINK-3362,1 51108U 22005E   22182.12207167  .00000289  00000-0  36254-4 0  9998,2 51108  53.2176 218.5965 0001706  50.0214 310.0928 15.08833798 26545,6917.899,95.438,540.945,538.5840000000002,0.0
51108.0,STARLINK-3362,PAYLOAD,2022-07-01 12:28:05,15.08834701,0.0001735,53.2176,216.8124,50.3287,309.7858,3.9003e-05,3.33e-06,0.0,0 STARLINK-3362,1 51108U 22005E   22182.51951227  .00000333  00000-0  39003-4 0  9999,2 51108  53.2176 216.8124 0001735  50.3287 309.7858 15.08834701 26607,6917.897,95.438,540.962,538.561,0.0
51108.0,STARLINK-3362,PAYLOAD,2022-07-01 18:49:38,15.0883554,0.0001746,53.2177,215.6231,50.4884,309.6263,3.9779e-05,3.45e-06,0.0,0 STARLINK-3362,1 51108U 22005E   22182.78447233  .00000345  00000-0  39779-4 0  9998,2 51108  53.2177 215.6231 0001746  50.4884 309.6263 15.08835540 25543,6917.894,95.438,540.967,538.5509999999998,0.0
51108.0,STARLINK-3362,PAYLOAD,2022-07-02 02:46:34,15.088382,0.0001744,53.2176,214.1361,49.9996,310.115,3.3558e-05,2.46e-06,0.0,0 STARLINK-3362,1 51108U 22005E   22183.11567160  .00000246  00000-0  33558-4 0  9997,2 51108  53.2176 214.1361 0001744  49.9996 310.1150 15.08838200 26690,6917.886,95.438,540.957,538.544,0.0
51108.0,STARLINK-3362,PAYLOAD,2022-07-02 10:43:29,15.08839528,0.0001769,53.2176,212.6495,50.6189,309.4959,4.1584e-05,3.74e-06,0.0,0 STARLINK-3362,1 51108U 22005E   22183.44687063  .00000374  00000-0  41584-4 0  9998,2 51108  53.2176 212.6495 0001769  50.6189 309.4959 15.08839528 26749,6917.882,95.438,540.971,538.523,0.0
51108.0,STARLINK-3362,PAYLOAD,2022-07-03 10:34:16,15.08845322,0.0001811,53.2176,208.1892,51.1847,308.9307,5.581e-05,6e-06,0.0,0 STARLINK-3362,1 51108U 22005E   22184.44046457  .00000600  00000-0  55810-4 0  9994,2 51108  53.2176 208.1892 0001811  51.1847 308.9307 15.08845322 25799,6917.864000000001,95.437,540.982,538.476,0.0
51108.0,STARLINK-3362,PAYLOAD,2022-07-03 18:31:11,15.08846122,0.0001823,53.2175,206.7024,51.4765,308.639,5.0857e-05,5.21e-06,0.0,0 STARLINK-3362,1 51108U 22005E   22184.77166282  .00000521  00000-0  50857-4 0  9997,2 51108  53.2175 206.7024 0001823  51.4765 308.6390 15.08846122 25848,6917.861999999999,95.437,540.988,538.466,0.0
51108.0,STARLINK-3362,PAYLOAD,2022-07-04 08:49:40,15.08834734,0.0001818,53.2176,204.0263,52.0717,308.0439,-6.1523e-05,-1.267e-05,0.0,0 STARLINK-3362,1 51108U 22005E   22185.36783317 -.00001267  00000-0 -61523-4 0  9999,2 51108  53.2176 204.0263 0001818  52.0717 308.0439 15.08834734 27030,6917.896,95.438,541.019,538.504,0.0
51108.0,STARLINK-3362,PAYLOAD,2022-07-04 10:25:03,15.08834455,0.0001818,53.2175,203.7283,50.747,309.3683,-6.5217e-05,-1.326e-05,0.0,0 STARLINK-3362,1 51108U 22005E   22185.43407355 -.00001326  00000-0 -65217-4 0  9992,2 51108  53.2175 203.7283 0001818  50.7470 309.3683 15.08834455 25941,6917.897,95.438,541.02,538.505,0.0
51108.0,STARLINK-3362,PAYLOAD,2022-07-04 18:21:59,15.08834934,0.0001827,53.2176,202.2414,51.0341,309.0814,-6.9644e-05,-1.396e-05,0.0,0 STARLINK-3362,1 51108U 22005E   22185.76527401 -.00001396  00000-0 -69644-4 0  9998,2 51108  53.2176 202.2414 0001827  51.0341 309.0814 15.08834934 27096,6917.896,95.438,541.025,538.497,0.0
51108.0,STARLINK-3362,PAYLOAD,2022-07-05 00:43:32,15.08835428,0.0001837,53.2178,201.0516,51.5103,308.6053,-6.2223e-05,-1.278e-05,0.0,0 STARLINK-3362,1 51108U 22005E   22186.03023390 -.00001278  00000-0 -62223-4 0  9992,2 51108  53.2178 201.0516 0001837  51.5103 308.6053 15.08835428 27134,6917.894,95.438,541.03,538.489,0.0
51108.0,STARLINK-3362,PAYLOAD,2022-07-05 10:15:51,15.08837132,0.00018,53.2174,199.2676,51.1798,308.9355,-6.8188e-05,-1.373e-05,0.0,0 STARLINK-3362,1 51108U 22005E   22186.42767366 -.00001373  00000-0 -68188-4 0  9995,2 51108  53.2174 199.2676 0001800  51.1798 308.9355 15.08837132 27199,6917.889,95.438,540.999,538.509,0.0
51108.0,STARLINK-3362,PAYLOAD,2022-07-05 18:12:46,15.08838284,0.0001801,53.2176,197.7809,51.3249,308.7904,-6.8411e-05,-1.377e-05,0.0,0 STARLINK-3362,1 51108U 22005E   22186.75887336 -.00001377  00000-0 -68411-4 0  9994,2 51108  53.2176 197.7809 0001801  51.3249 308.7904 15.08838284 27249,6917.886,95.438,540.997,538.505,0.0
